[{"OBJECT_NAME":"FLOCK 4G-21","OBJECT_ID":"2025-009AU","EPOCH":"2026-03-09T04:40:37.351200","MEAN_MOTION":15.28381075,"ECCENTRICITY":4.655e-5,"INCLINATION":97.4032,"RA_OF_ASC_NODE":151.1274,"ARG_OF_PERICENTER":329.5782,"MEAN_ANOMALY":30.5431,"EPHEMERIS_TYPE":0,"CLASSIFICATION_TYPE":"U","NORAD_CAT_ID":62651,"ELEMENT_SET_NO":999,"REV_AT_EPOCH":6367,"BSTAR":0.00049618643,"MEAN_MOTION_DOT":0.00013648,"MEAN_MOTION_DDOT":0},{"OBJECT_NAME":"STARLINK-35834","OBJECT_ID":"2025-268P","EPOCH":"2026-03-09T03:50:22.087104","MEAN_MOTION":15.27613968,"ECCENTRICITY":2.792e-5,"INCLINATION":42.9969,"RA_OF_ASC_NODE":350.5009,"ARG_OF_PERICENTER":237.3828,"MEAN_ANOMALY":122.6996,"EPHEMERIS_TYPE":0,"CLASSIFICATION_TYPE":"U","NORAD_CAT_ID":66570,"ELEMENT_SET_NO":999,"REV_AT_EPOCH":1787,"BSTAR":0.0011225519,"MEAN_MOTION_DOT":0.00030789,"MEAN_MOTION_DDOT":0}]
